$$SOE
2460721.500000000, A.D. 2025-Feb-15 00:00:00.0000, 7.861968259330943E+07, -4.159934435345021E+08, 5.475173202938139E+05,
2460728.500000000, A.D. 2025-Feb-22 00:00:00.0000, 8.934386006925502E+07, -4.141091841153740E+08, 2.294311695487440E+06,
2460735.500000000, A.D. 2025-Mar-01 00:00:00.0000, 1.000110020953667E+08, -4.119606024270955E+08, 4.039641664514095E+06,
2460742.500000000, A.D. 2025-Mar-08 00:00:00.0000, 1.106144379125197E+08, -4.095496314552750E+08, 5.782398116266042E+06,
2460749.500000000, A.D. 2025-Mar-15 00:00:00.0000, 1.211475749389842E+08, -4.068783913104258E+08, 7.521478731874257E+06,
2460756.500000000, A.D. 2025-Mar-22 00:00:00.0000, 1.316039024073684E+08, -4.039491851463193E+08, 9.255789259732872E+06,
2460763.500000000, A.D. 2025-Mar-29 00:00:00.0000, 1.419769961710539E+08, -4.007644971154066E+08, 1.098424445620015E+07,
2460770.500000000, A.D. 2025-Apr-05 00:00:00.0000, 1.522605249977978E+08, -3.973269892360346E+08, 1.270576891660655E+07,
2460777.500000000, A.D. 2025-Apr-12 00:00:00.0000, 1.624482564171395E+08, -3.936394970811208E+08, 1.441929797994091E+07,
2460784.500000000, A.D. 2025-Apr-19 00:00:00.0000, 1.725340619276075E+08, -3.897050251828825E+08, 1.612377865070173E+07,
2460791.500000000, A.D. 2025-Apr-26 00:00:00.0000, 1.825119218295091E+08, -3.855267423699055E+08, 1.781817049489948E+07,
2460798.500000000, A.D. 2025-May-03 00:00:00.0000, 1.923759297918919E+08, -3.811079770307806E+08, 1.950144650002033E+07,
2460805.500000000, A.D. 2025-May-10 00:00:00.0000, 2.021202971778862E+08, -3.764522123089756E+08, 2.117259389583892E+07,
2460812.500000000, A.D. 2025-May-17 00:00:00.0000, 2.117393571617456E+08, -3.715630812831177E+08, 2.283061492828618E+07,
2460819.500000000, A.D. 2025-May-24 00:00:00.0000, 2.212275688092922E+08, -3.664443622006255E+08, 2.447452756517845E+07,
2460826.500000000, A.D. 2025-May-31 00:00:00.0000, 2.305795215379095E+08, -3.610999734680190E+08, 2.610336612050794E+07,
2460833.500000000, A.D. 2025-Jun-07 00:00:00.0000, 2.397899395530163E+08, -3.555339672073956E+08, 2.771618193226537E+07,
2460840.500000000, A.D. 2025-Jun-14 00:00:00.0000, 2.488536838937652E+08, -3.497505220580347E+08, 2.931204425550583E+07,
2460847.500000000, A.D. 2025-Jun-21 00:00:00.0000, 2.577657533035573E+08, -3.437539385035176E+08, 3.089004099052304E+07,
2460854.500000000, A.D. 2025-Jun-28 00:00:00.0000, 2.665212870563959E+08, -3.375486349691229E+08, 3.244927910258749E+07,
2460861.500000000, A.D. 2025-Jul-05 00:00:00.0000, 2.751155682277253E+08, -3.311391425457886E+08, 3.398888504873063E+07,
2460868.500000000, A.D. 2025-Jul-12 00:00:00.0000, 2.835440262238058E+08, -3.245300991605000E+08, 3.550800525575879E+07,
2460875.500000000, A.D. 2025-Jul-19 00:00:00.0000, 2.918022387631021E+08, -3.177262437824683E+08, 3.700580658603473E+07,
2460882.500000000, A.D. 2025-Jul-26 00:00:00.0000, 2.998859335226793E+08, -3.107324107347134E+08, 3.848147676796545E+07,
2460889.500000000, A.D. 2025-Aug-02 00:00:00.0000, 3.077909895177600E+08, -3.035535241007943E+08, 3.993422478755714E+07,
2460896.500000000, A.D. 2025-Aug-09 00:00:00.0000, 3.155134382407638E+08, -2.961945922510213E+08, 4.136328123803328E+07,
2460903.500000000, A.D. 2025-Aug-16 00:00:00.0000, 3.230494646403018E+08, -2.886607025593444E+08, 4.276789861540765E+07,
2460910.500000000, A.D. 2025-Aug-23 00:00:00.0000, 3.303954082379308E+08, -2.809570163011934E+08, 4.414735153474519E+07,
2460917.500000000, A.D. 2025-Aug-30 00:00:00.0000, 3.375477647191422E+08, -2.730887630254443E+08, 4.550093689617324E+07,
2460924.500000000, A.D. 2025-Sep-06 00:00:00.0000, 3.445031865889962E+08, -2.650612334092689E+08, 4.682797421400741E+07,
2460931.500000000, A.D. 2025-Sep-13 00:00:00.0000, 3.512584812286671E+08, -2.568797730877752E+08, 4.812780606065058E+07,
2460938.500000000, A.D. 2025-Sep-20 00:00:00.0000, 3.578106096321598E+08, -2.485497791095372E+08, 4.939979819147030E+07,
2460945.500000000, A.D. 2025-Sep-27 00:00:00.0000, 3.641566868892358E+08, -2.400766959124520E+08, 5.064333950896438E+07,
2460952.500000000, A.D. 2025-Oct-04 00:00:00.0000, 3.702939824060749E+08, -2.314660102873931E+08, 5.185784209672774E+07,
2460959.500000000, A.D. 2025-Oct-11 00:00:00.0000, 3.762199194977081E+08, -2.227232462789205E+08, 5.304274128177155E+07,
2460966.500000000, A.D. 2025-Oct-18 00:00:00.0000, 3.819320746432904E+08, -2.138539603027084E+08, 5.419749567790258E+07,
2460973.500000000, A.D. 2025-Oct-25 00:00:00.0000, 3.874281765512046E+08, -2.048637364730937E+08, 5.532158719931962E+07,
2460980.500000000, A.D. 2025-Nov-01 00:00:00.0000, 3.927061050809784E+08, -1.957581821290780E+08, 5.641452104308324E+07,
2460987.500000000, A.D. 2025-Nov-08 00:00:00.0000, 3.977638900639404E+08, -1.865429235935682E+08, 5.747582563562521E+07,
2460994.500000000, A.D. 2025-Nov-15 00:00:00.0000, 4.025997101772915E+08, -1.772236022270411E+08, 5.850505252559012E+07,
2461001.500000000, A.D. 2025-Nov-22 00:00:00.0000, 4.072118922809619E+08, -1.678058705568123E+08, 5.950177620454323E+07,
2461008.500000000, A.D. 2025-Nov-29 00:00:00.0000, 4.115989110722712E+08, -1.582953873475304E+08, 6.046559396337541E+07,
2461015.500000000, A.D. 2025-Dec-06 00:00:00.0000, 4.157593867904524E+08, -1.486978117510717E+08, 6.139612598387092E+07,
2461022.500000000, A.D. 2025-Dec-13 00:00:00.0000, 4.196920814119800E+08, -1.390187999087901E+08, 6.229301535129541E+07,
2461029.500000000, A.D. 2025-Dec-20 00:00:00.0000, 4.233958968353185E+08, -1.292640029831459E+08, 6.315592775158248E+07,
2461036.500000000, A.D. 2025-Dec-27 00:00:00.0000, 4.268698739881334E+08, -1.194390640265239E+08, 6.398455116423848E+07,
2461043.500000000, A.D. 2026-Jan-03 00:00:00.0000, 4.301131914054309E+08, -1.095496143022933E+08, 6.477859563579878E+07,
2461050.500000000, A.D. 2026-Jan-10 00:00:00.0000, 4.331251633957112E+08, -9.960126973635148E+07, 6.553779306959765E+07,
2461057.500000000, A.D. 2026-Jan-17 00:00:00.0000, 4.359052380347029E+08, -8.959962758957644E+07, 6.626189700433601E+07,
2461064.500000000, A.D. 2026-Jan-24 00:00:00.0000, 4.384529950714963E+08, -7.955026332707739E+07, 6.695068237750123E+07,
2461071.500000000, A.D. 2026-Jan-31 00:00:00.0000, 4.407681437772329E+08, -6.945872769017747E+07, 6.760394527225554E+07,
2461078.500000000, A.D. 2026-Feb-07 00:00:00.0000, 4.428505208040270E+08, -5.933054402726180E+07, 6.822150263869940E+07,
2461085.500000000, A.D. 2026-Feb-14 00:00:00.0000, 4.447000883118885E+08, -4.917120589770064E+07, 6.880319196574736E+07,
2461092.500000000, A.D. 2026-Feb-21 00:00:00.0000, 4.463169327540892E+08, -3.898617436959191E+07, 6.934887091523822E+07,
2461099.500000000, A.D. 2026-Feb-28 00:00:00.0000, 4.477012632396619E+08, -2.878087385369042E+07, 6.985841711233592E+07,
2461106.500000000, A.D. 2026-Mar-07 00:00:00.0000, 4.488534074205818E+08, -1.856068841996119E+07, 7.033172812288216E+07,
2461113.500000000, A.D. 2026-Mar-14 00:00:00.0000, 4.497738076845369E+08, -8.330960927173305E+06, 7.076872117333807E+07,
2461120.500000000, A.D. 2026-Mar-21 00:00:00.0000, 4.504630194402459E+08, 1.903007935941160E+06, 7.116933268735135E+07,
2461127.500000000, A.D. 2026-Mar-28 00:00:00.0000, 4.509217094915714E+08, 1.213596173004743E+07, 7.153351790883119E+07,
2461134.500000000, A.D. 2026-Apr-04 00:00:00.0000, 4.511506539025919E+08, 2.236269050161180E+07, 7.186125058963962E+07,
2461141.500000000, A.D. 2026-Apr-11 00:00:00.0000, 4.511507356322916E+08, 3.257803281813641E+07, 7.215252268858974E+07,
2461148.500000000, A.D. 2026-Apr-18 00:00:00.0000, 4.509229421019235E+08, 4.277687759757219E+07, 7.240734406744803E+07,
2461155.500000000, A.D. 2026-Apr-25 00:00:00.0000, 4.504683627442142E+08, 5.295416574913994E+07, 7.262574218161844E+07,
2461162.500000000, A.D. 2026-May-02 00:00:00.0000, 4.497881865683863E+08, 6.310489159881890E+07, 7.280776176092686E+07,
2461169.500000000, A.D. 2026-May-09 00:00:00.0000, 4.488836998689426E+08, 7.322410403616399E+07, 7.295346446431297E+07,
2461176.500000000, A.D. 2026-May-16 00:00:00.0000, 4.477562844589408E+08, 8.330690752330258E+07, 7.306292848545161E+07,
2461183.500000000, A.D. 2026-May-23 00:00:00.0000, 4.464074164808092E+08, 9.334846399138433E+07, 7.313624818803334E+07,
2461190.500000000, A.D. 2026-May-30 00:00:00.0000, 4.448386637180036E+08, 1.033439959487119E+08, 7.317353398791178E+07,
2461197.500000000, A.D. 2026-Jun-06 00:00:00.0000, 4.430516810948191E+08, 1.132887875308835E+08, 7.317491224496135E+07,
2461204.500000000, A.D. 2026-Jun-13 00:00:00.0000, 4.410482080331243E+08, 1.231781836935818E+08, 7.314052484489045E+07,
2461211.500000000, A.D. 2026-Jun-20 00:00:00.0000, 4.388300671652979E+08, 1.330075904767956E+08, 7.307052875568372E+07,
2461218.500000000, A.D. 2026-Jun-27 00:00:00.0000, 4.363991627061233E+08, 1.427724760042141E+08, 7.296509568670952E+07,
2461225.500000000, A.D. 2026-Jul-04 00:00:00.0000, 4.337574784852519E+08, 1.524683714462526E+08, 7.282441178736004E+07,
2461232.500000000, A.D. 2026-Jul-11 00:00:00.0000, 4.309070758956816E+08, 1.620908718179142E+08, 7.264867735125726E+07,
2461239.500000000, A.D. 2026-Jul-18 00:00:00.0000, 4.278500918522253E+08, 1.716356366402821E+08, 7.243810651967488E+07,
2461246.500000000, A.D. 2026-Jul-25 00:00:00.0000, 4.245887367854896E+08, 1.810983904714442E+08, 7.219292698222163E+07,
2461253.500000000, A.D. 2026-Aug-01 00:00:00.0000, 4.211252927205181E+08, 1.904749232618530E+08, 7.191337966656688E+07,
2461260.500000000, A.D. 2026-Aug-08 00:00:00.0000, 4.174621116561719E+08, 1.997610905012461E+08, 7.159971839475970E+07,
2461267.500000000, A.D. 2026-Aug-15 00:00:00.0000, 4.136016146611277E+08, 2.089528136098287E+08, 7.125220950486912E+07,
2461274.500000000, A.D. 2026-Aug-22 00:00:00.0000, 4.095462909244553E+08, 2.180460817970911E+08, 7.087113160712105E+07,
2461281.500000000, A.D. 2026-Aug-29 00:00:00.0000, 4.052986944707870E+08, 2.270369540197575E+08, 7.045677557252330E+07,
2461288.500000000, A.D. 2026-Sep-05 00:00:00.0000, 4.008614406761594E+08, 2.359215581750179E+08, 7.000944432492767E+07,
$$EOE